start=new Date('2022-11-23T00:00:00.000Z').valueOf();
sats=[{"NORAD_CAT_ID":"47398","RA_OF_ASC_NODE":"32.8907","OBJECT_TYPE":"PAYLOAD","GP_ID":"218470369","ELEMENT_SET_NO":"999","APOAPSIS":"548.295","REF_FRAME":"TEME","SITE":"AFETR","CLASSIFICATION_TYPE":"U","FILE":"3667274","OBJECT_ID":"2021-005BB","TLE_LINE2":"2 47398  53.0542  32.8907 0001611  69.7267 290.3895 15.06411123102112","EPHEMERIS_TYPE":"0","ARG_OF_PERICENTER":"69.7267","TIME_SYSTEM":"UTC","MEAN_ELEMENT_THEORY":"SGP4","ECCENTRICITY":"0.00016110","MEAN_MOTION_DOT":"0.00004456","MEAN_MOTION":"15.06411123","RCS_SIZE":"LARGE","EPOCH":"2022-11-22T12:23:21.177312","OBJECT_NAME":"STARLINK-2120","LAUNCH_DATE":"2021-01-20","TLE_LINE1":"1 47398U 21005BB  22326.51621733  .00004456  00000-0  31774-3 0  9996","COUNTRY_CODE":"US","MEAN_MOTION_DDOT":"0.0000000000000","REV_AT_EPOCH":"10211","BSTAR":"0.00031774000000","INCLINATION":"53.0542","PERIOD":"95.591","MEAN_ANOMALY":"290.3895","CENTER_NAME":"EARTH","SEMIMAJOR_AXIS":"6925.314","PERIAPSIS":"546.064","DECAY_DATE":null},{"NORAD_CAT_ID":"47399","RA_OF_ASC_NODE":"43.2549","OBJECT_TYPE":"PAYLOAD","GP_ID":"218471121","ELEMENT_SET_NO":"999","APOAPSIS":"548.265","REF_FRAME":"TEME","CLASSIFICATION_TYPE":"U","SITE":"AFETR","FILE":"3667274","OBJECT_ID":"2021-005BC","TLE_LINE2":"2 47399  53.0562  43.2549 0001512  85.4444 274.6717 15.06398707101967","EPHEMERIS_TYPE":"0","ARG_OF_PERICENTER":"85.4444","TIME_SYSTEM":"UTC","MEAN_ELEMENT_THEORY":"SGP4","ECCENTRICITY":"0.00015120","MEAN_MOTION_DOT":"0.00001173","RCS_SIZE":"LARGE","MEAN_MOTION":"15.06398707","EPOCH":"2022-11-22T11:39:36.879264","LAUNCH_DATE":"2021-01-20","OBJECT_NAME":"STARLINK-2121","TLE_LINE1":"1 47399U 21005BC  22326.48584351  .00001173  00000-0  97617-4 0  9999","COUNTRY_CODE":"US","REV_AT_EPOCH":"10196","MEAN_MOTION_DDOT":"0.0000000000000","BSTAR":"0.00009761700000","INCLINATION":"53.0562","MEAN_ANOMALY":"274.6717","PERIOD":"95.592","CENTER_NAME":"EARTH","SEMIMAJOR_AXIS":"6925.353","PERIAPSIS":"546.170","DECAY_DATE":null},{"RCS_SIZE":"LARGE","MEAN_MOTION":"15.06398814","EPOCH":"2022-11-22T10:43:50.272032","LAUNCH_DATE":"2021-01-20","OBJECT_NAME":"STARLINK-2122","TLE_LINE1":"1 47400U 21005BD  22326.44710963  .00000468  00000-0  50355-4 0  9992","COUNTRY_CODE":"US","PERIOD":"95.592","MEAN_ANOMALY":"312.9480","CENTER_NAME":"EARTH","MEAN_MOTION_DDOT":"0.0000000000000","BSTAR":"0.00005035500000","REV_AT_EPOCH":"10224","INCLINATION":"53.0563","DECAY_DATE":null,"SEMIMAJOR_AXIS":"6925.352","PERIAPSIS":"545.938","RA_OF_ASC_NODE":"23.2067","NORAD_CAT_ID":"47400","APOAPSIS":"548.496","OBJECT_TYPE":"PAYLOAD","ELEMENT_SET_NO":"999","GP_ID":"218471857","CLASSIFICATION_TYPE":"U","SITE":"AFETR","FILE":"3667274","REF_FRAME":"TEME","EPHEMERIS_TYPE":"0","OBJECT_ID":"2021-005BD","TLE_LINE2":"2 47400  53.0563  23.2067 0001847  47.1664 312.9480 15.06398814102248","ARG_OF_PERICENTER":"47.1664","ECCENTRICITY":"0.00018470","MEAN_ELEMENT_THEORY":"SGP4","TIME_SYSTEM":"UTC","MEAN_MOTION_DOT":"0.00000468"},{"LAUNCH_DATE":"2021-01-20","OBJECT_NAME":"STARLINK-2123","TLE_LINE1":"1 47401U 21005BE  22326.46461109  .00000875  00000-0  77612-4 0  9997","COUNTRY_CODE":"US","PERIOD":"95.592","MEAN_ANOMALY":"288.7787","CENTER_NAME":"EARTH","BSTAR":"0.00007761200000","MEAN_MOTION_DDOT":"0.0000000000000","REV_AT_EPOCH":"10211","INCLINATION":"53.0557","DECAY_DATE":null,"SEMIMAJOR_AXIS":"6925.328","PERIAPSIS":"546.067","MEAN_MOTION":"15.06406772","RCS_SIZE":"LARGE","EPOCH":"2022-11-22T11:09:02.398176","EPHEMERIS_TYPE":"0","OBJECT_ID":"2021-005BE","TLE_LINE2":"2 47401  53.0557  33.1165 0001625  71.3378 288.7787 15.06406772102115","ARG_OF_PERICENTER":"71.3378","MEAN_ELEMENT_THEORY":"SGP4","ECCENTRICITY":"0.00016250","TIME_SYSTEM":"UTC","MEAN_MOTION_DOT":"0.00000875","RA_OF_ASC_NODE":"33.1165","NORAD_CAT_ID":"47401","APOAPSIS":"548.318","OBJECT_TYPE":"PAYLOAD","ELEMENT_SET_NO":"999","GP_ID":"218470619","CLASSIFICATION_TYPE":"U","SITE":"AFETR","FILE":"3667274","REF_FRAME":"TEME"},{"DECAY_DATE":null,"SEMIMAJOR_AXIS":"6925.345","PERIAPSIS":"546.217","MEAN_ANOMALY":"293.6130","PERIOD":"95.592","CENTER_NAME":"EARTH","REV_AT_EPOCH":"10211","MEAN_MOTION_DDOT":"0.0000000000000","BSTAR":"0.00018801000000","INCLINATION":"53.0563","COUNTRY_CODE":"US","OBJECT_NAME":"STARLINK-2124","LAUNCH_DATE":"2021-01-20","TLE_LINE1":"1 47402U 21005BF  22326.48304843  .00002520  00000-0  18801-3 0  9994","EPOCH":"2022-11-22T11:35:35.384352","RCS_SIZE":"LARGE","MEAN_MOTION":"15.06401242","MEAN_MOTION_DOT":"0.00002520","ECCENTRICITY":"0.00014330","MEAN_ELEMENT_THEORY":"SGP4","TIME_SYSTEM":"UTC","ARG_OF_PERICENTER":"66.5009","EPHEMERIS_TYPE":"0","OBJECT_ID":"2021-005BF","TLE_LINE2":"2 47402  53.0563  33.0308 0001433  66.5009 293.6130 15.06401242102119","CLASSIFICATION_TYPE":"U","SITE":"AFETR","FILE":"3667274","REF_FRAME":"TEME","APOAPSIS":"548.202","OBJECT_TYPE":"PAYLOAD","ELEMENT_SET_NO":"999","GP_ID":"218470869","RA_OF_ASC_NODE":"33.0308","NORAD_CAT_ID":"47402"},{"MEAN_ELEMENT_THEORY":"SGP4","ECCENTRICITY":"0.00013360","TIME_SYSTEM":"UTC","MEAN_MOTION_DOT":"0.00001477","EPHEMERIS_TYPE":"0","TLE_LINE2":"2 47403  53.0552  32.9950 0001336  76.8388 283.2750 15.06402298102110","OBJECT_ID":"2021-005BG","ARG_OF_PERICENTER":"76.8388","FILE":"3667274","SITE":"AFETR","CLASSIFICATION_TYPE":"U","REF_FRAME":"TEME","RA_OF_ASC_NODE":"32.9950","NORAD_CAT_ID":"47403","APOAPSIS":"548.132","GP_ID":"218471621","ELEMENT_SET_NO":"999","OBJECT_TYPE":"PAYLOAD","CENTER_NAME":"EARTH","MEAN_ANOMALY":"283.2750","PERIOD":"95.592","MEAN_MOTION_DDOT":"0.0000000000000","REV_AT_EPOCH":"10211","BSTAR":"0.00011805000000","INCLINATION":"53.0552","DECAY_DATE":null,"PERIAPSIS":"546.281","SEMIMAJOR_AXIS":"6925.342","TLE_LINE1":"1 47403U 21005BG  22326.49041838  .00001477  00000-0  11805-3 0  9995","LAUNCH_DATE":"2021-01-20","OBJECT_NAME":"STARLINK-2127","COUNTRY_CODE":"US","MEAN_MOTION":"15.06402298","RCS_SIZE":"LARGE","EPOCH":"2022-11-22T11:46:12.148032"},{"MEAN_MOTION_DOT":"0.00001663","ECCENTRICITY":"0.00010560","MEAN_ELEMENT_THEORY":"SGP4","TIME_SYSTEM":"UTC","ARG_OF_PERICENTER":"77.1448","EPHEMERIS_TYPE":"0","OBJECT_ID":"2021-005BH","TLE_LINE2":"2 47404  53.0543  32.1297 0001056  77.1448 282.9659 15.06389779102142","SITE":"AFETR","CLASSIFICATION_TYPE":"U","FILE":"3667517","REF_FRAME":"TEME","APOAPSIS":"547.976","OBJECT_TYPE":"PAYLOAD","GP_ID":"218502997","ELEMENT_SET_NO":"999","RA_OF_ASC_NODE":"32.1297","NORAD_CAT_ID":"47404","DECAY_DATE":null,"SEMIMAJOR_AXIS":"6925.380","PERIAPSIS":"546.514","MEAN_ANOMALY":"282.9659","PERIOD":"95.593","CENTER_NAME":"EARTH","REV_AT_EPOCH":"10214","MEAN_MOTION_DDOT":"0.0000000000000","BSTAR":"0.00013054000000","INCLINATION":"53.0543","COUNTRY_CODE":"US","LAUNCH_DATE":"2021-01-20","OBJECT_NAME":"STARLINK-2128","TLE_LINE1":"1 47404U 21005BH  22326.68577888  .00001663  00000-0  13054-3 0  9991","EPOCH":"2022-11-22T16:27:31.295232","RCS_SIZE":"LARGE","MEAN_MOTION":"15.06389779"},{"MEAN_MOTION":"15.06391615","RCS_SIZE":"LARGE","EPOCH":"2022-11-22T14:26:46.383072","PERIOD":"95.593","MEAN_ANOMALY":"281.4501","CENTER_NAME":"EARTH","REV_AT_EPOCH":"10170","MEAN_MOTION_DDOT":"0.0000000000000","BSTAR":"0.00012289000000","INCLINATION":"53.0566","DECAY_DATE":null,"SEMIMAJOR_AXIS":"6925.374","PERIAPSIS":"546.273","LAUNCH_DATE":"2021-01-20","OBJECT_NAME":"STARLINK-2130","TLE_LINE1":"1 47405U 21005BJ  22326.60192573  .00001549  00000-0  12289-3 0  9990","COUNTRY_CODE":"US","CLASSIFICATION_TYPE":"U","SITE":"AFETR","FILE":"3667517","REF_FRAME":"TEME","RA_OF_ASC_NODE":"62.4874","NORAD_CAT_ID":"47405","APOAPSIS":"548.205","OBJECT_TYPE":"PAYLOAD","ELEMENT_SET_NO":"999","GP_ID":"218501745","ECCENTRICITY":"0.00013950","MEAN_ELEMENT_THEORY":"SGP4","TIME_SYSTEM":"UTC","MEAN_MOTION_DOT":"0.00001549","EPHEMERIS_TYPE":"0","OBJECT_ID":"2021-005BJ","TLE_LINE2":"2 47405  53.0566  62.4874 0001395  78.6644 281.4501 15.06391615101708","ARG_OF_PERICENTER":"78.6644"},{"EPOCH":"2022-11-22T13:32:21.397920","RCS_SIZE":"LARGE","MEAN_MOTION":"15.06394618","DECAY_DATE":null,"SEMIMAJOR_AXIS":"6925.365","PERIAPSIS":"546.290","MEAN_ANOMALY":"274.4260","PERIOD":"95.592","CENTER_NAME":"EARTH","BSTAR":"0.00007733500000","MEAN_MOTION_DDOT":"0.0000000000000","REV_AT_EPOCH":"10212","INCLINATION":"53.0556","COUNTRY_CODE":"US","LAUNCH_DATE":"2021-01-20","OBJECT_NAME":"STARLINK-2133","TLE_LINE1":"1 47406U 21005BK  22326.56413655  .00000870  00000-0  77335-4 0  9993","CLASSIFICATION_TYPE":"U","SITE":"AFETR","FILE":"3667517","REF_FRAME":"TEME","APOAPSIS":"548.171","OBJECT_TYPE":"PAYLOAD","ELEMENT_SET_NO":"999","GP_ID":"218501995","RA_OF_ASC_NODE":"32.6731","NORAD_CAT_ID":"47406","MEAN_MOTION_DOT":"0.00000870","MEAN_ELEMENT_THEORY":"SGP4","ECCENTRICITY":"0.00013580","TIME_SYSTEM":"UTC","ARG_OF_PERICENTER":"85.6884","EPHEMERIS_TYPE":"0","OBJECT_ID":"2021-005BK","TLE_LINE2":"2 47406  53.0556  32.6731 0001358  85.6884 274.4260 15.06394618102129"},{"COUNTRY_CODE":"US","LAUNCH_DATE":"2021-01-20","OBJECT_NAME":"STARLINK-2134","TLE_LINE1":"1 47407U 21005BL  22326.77054526  .00000947  00000-0  82415-4 0  9995","SEMIMAJOR_AXIS":"6925.325","PERIAPSIS":"546.318","DECAY_DATE":null,"MEAN_MOTION_DDOT":"0.0000000000000","REV_AT_EPOCH":"10215","BSTAR":"0.00008241500000","INCLINATION":"53.0549","MEAN_ANOMALY":"288.1144","PERIOD":"95.592","CENTER_NAME":"EARTH","EPOCH":"2022-11-22T18:29:35.110464","RCS_SIZE":"LARGE","MEAN_MOTION":"15.06407593","ARG_OF_PERICENTER":"71.9982","OBJECT_ID":"2021-005BL","TLE_LINE2":"2 47407  53.0549  31.7468 0001260  71.9982 288.1144 15.06407593102151","EPHEMERIS_TYPE":"0","MEAN_MOTION_DOT":"0.00000947","TIME_SYSTEM":"UTC","MEAN_ELEMENT_THEORY":"SGP4","ECCENTRICITY":"0.00012600","OBJECT_TYPE":"PAYLOAD","ELEMENT_SET_NO":"999","GP_ID":"218502747","APOAPSIS":"548.063","NORAD_CAT_ID":"47407","RA_OF_ASC_NODE":"31.7468","REF_FRAME":"TEME","SITE":"AFETR","CLASSIFICATION_TYPE":"U","FILE":"3667517"}];
